CCSDS_OMM_VERS = 2.0
CREATION_DATE  = 
ORIGINATOR     = 

OBJECT_NAME    = CZ-2C R/B
OBJECT_ID      = 2022-132E
CENTER_NAME    = EARTH
REF_FRAME      = TEME
TIME_SYSTEM    = UTC
MEAN_ELEMENT_THEORY = SGP/SGP4

EPOCH          = 2026-02-17T11:56:49.094016
MEAN_MOTION    = 15.60047949
ECCENTRICITY   = .0019609
INCLINATION    = 97.2955
RA_OF_ASC_NODE = 51.2322
ARG_OF_PERICENTER = 157.4378
MEAN_ANOMALY   = 202.7746

EPHEMERIS_TYPE = 0
CLASSIFICATION_TYPE = U
NORAD_CAT_ID   = 54039
ELEMENT_SET_NO = 999
REV_AT_EPOCH   = 18722
BSTAR          = .54416E-3
MEAN_MOTION_DOT = .44493E-3
MEAN_MOTION_DDOT = 0

CCSDS_OMM_VERS = 2.0
CREATION_DATE  = 
ORIGINATOR     = 

OBJECT_NAME    = GSLV R/B
OBJECT_ID      = 2022-138AN
CENTER_NAME    = EARTH
REF_FRAME      = TEME
TIME_SYSTEM    = UTC
MEAN_ELEMENT_THEORY = SGP/SGP4

EPOCH          = 2026-02-17T09:29:36.499776
MEAN_MOTION    = 14.96614791
ECCENTRICITY   = .0020032
INCLINATION    = 87.3873
RA_OF_ASC_NODE = 173.1523
ARG_OF_PERICENTER = 220.7105
MEAN_ANOMALY   = 139.2631

EPHEMERIS_TYPE = 0
CLASSIFICATION_TYPE = U
NORAD_CAT_ID   = 54149
ELEMENT_SET_NO = 999
REV_AT_EPOCH   = 18089
BSTAR          = .30931E-3
MEAN_MOTION_DOT = .3564E-4
MEAN_MOTION_DDOT = 0

CCSDS_OMM_VERS = 2.0
CREATION_DATE  = 
ORIGINATOR     = 

OBJECT_NAME    = XRISM
OBJECT_ID      = 2023-137A
CENTER_NAME    = EARTH
REF_FRAME      = TEME
TIME_SYSTEM    = UTC
MEAN_ELEMENT_THEORY = SGP/SGP4

EPOCH          = 2026-02-17T08:46:08.421600
MEAN_MOTION    = 15.11241447
ECCENTRICITY   = .0008247
INCLINATION    = 31.0028
RA_OF_ASC_NODE = 55.0911
ARG_OF_PERICENTER = 197.0097
MEAN_ANOMALY   = 163.0265

EPHEMERIS_TYPE = 0
CLASSIFICATION_TYPE = U
NORAD_CAT_ID   = 57800
ELEMENT_SET_NO = 999
REV_AT_EPOCH   = 13471
BSTAR          = .32328E-3
MEAN_MOTION_DOT = .5671E-4
MEAN_MOTION_DDOT = 0

CCSDS_OMM_VERS = 2.0
CREATION_DATE  = 
ORIGINATOR     = 

OBJECT_NAME    = ACS3
OBJECT_ID      = 2024-077B
CENTER_NAME    = EARTH
REF_FRAME      = TEME
TIME_SYSTEM    = UTC
MEAN_ELEMENT_THEORY = SGP/SGP4

EPOCH          = 2026-02-17T11:22:29.489088
MEAN_MOTION    = 13.88741164
ECCENTRICITY   = .0047989
INCLINATION    = 97.2180
RA_OF_ASC_NODE = 354.1304
ARG_OF_PERICENTER = 136.0955
MEAN_ANOMALY   = 224.4037

EPHEMERIS_TYPE = 0
CLASSIFICATION_TYPE = U
NORAD_CAT_ID   = 59588
ELEMENT_SET_NO = 999
REV_AT_EPOCH   = 9139
BSTAR          = .17793E-1
MEAN_MOTION_DOT = .21687E-3
MEAN_MOTION_DDOT = 0

CCSDS_OMM_VERS = 2.0
CREATION_DATE  = 
ORIGINATOR     = 

OBJECT_NAME    = SZ-21 MODULE
OBJECT_ID      = 2025-246C
CENTER_NAME    = EARTH
REF_FRAME      = TEME
TIME_SYSTEM    = UTC
MEAN_ELEMENT_THEORY = SGP/SGP4

EPOCH          = 2026-02-17T04:17:16.923840
MEAN_MOTION    = 15.66957917
ECCENTRICITY   = .00019678
INCLINATION    = 41.4766
RA_OF_ASC_NODE = 329.4655
ARG_OF_PERICENTER = 297.4736
MEAN_ANOMALY   = 62.5905

EPHEMERIS_TYPE = 0
CLASSIFICATION_TYPE = U
NORAD_CAT_ID   = 66515
ELEMENT_SET_NO = 999
REV_AT_EPOCH   = 1485
BSTAR          = .34761218E-3
MEAN_MOTION_DOT = .37852E-3
MEAN_MOTION_DDOT = 0

